SL-16 R/B               
1 22566U 93016B   26060.51070647  .00000336  00000+0  19690-3 0  9993
2 22566  71.0053 232.3598 0011218 325.7238  34.3159 14.15303667701014
COSMOS 2242             
1 22626U 93024A   26060.07745446  .00002046  00000+0  17747-3 0  9997
2 22626  82.5160 274.9559 0015846 339.6210  20.4378 14.96507706779104
SL-16 R/B               
1 22803U 93059B   26060.36006465  .00000175  00000+0  11042-3 0  9998
2 22803  70.9914  28.6906 0018874 228.1805 131.7708 14.17231508678350
ARIANE 40 R/B           
1 22830U 93061H   26060.17924058  .00000220  00000+0  96544-4 0  9999
2 22830  98.4935 129.2343 0009724 313.1801  46.8570 14.32855640692889
COSMOS 2278             
1 23087U 94023A   26060.46448826  .00000358  00000+0  21148-3 0  9998
2 23087  71.0537 192.3039 0007571  30.0489 330.1067 14.14373880643648
SL-16 R/B               
1 23088U 94023B   26060.51465808 -.00000034  00000+0  69301-5 0  9991
2 23088  70.9987  88.0569 0005518 293.4733  66.5810 14.15013484644932
SL-16 R/B               
1 23343U 94074B   26060.06192727  .00000543  00000+0  79464-4 0  9992
2 23343  97.7121  91.2287 0005241 243.8930 143.1276 14.79396099685970
SL-16 R/B               
1 23405U 94077B   26060.28746129 -.00000230  00000+0 -93111-4 0  9999
2 23405  70.9849  10.1639 0003548 222.9302 137.1544 14.15563078615044
ARIANE 40+ R/B          
1 23561U 95021B   26060.19895301  .00000314  00000+0  11400-3 0  9990
2 23561  98.4515 131.7960 0007274 159.1383 259.9947 14.39765130618029
SL-16 R/B               
1 23705U 95058B   26060.50604419 -.00000138  00000+0 -46431-4 0  9992
2 23705  71.0208 197.4347 0011064 140.2977 219.8958 14.15492803566695
SL-16 R/B               
1 24298U 96051B   26060.45498243  .00000073  00000+0  66378-4 0  9992
2 24298  70.7592 192.6671 0015827 160.0862 200.0879 14.12413163520486
ORBVIEW 2 (SEASTAR)     
1 24883U 97037A   26060.40213455  .00000375  00000+0  14659-3 0  9991
2 24883  98.8552 224.4950 0003206  88.6993 271.4559 14.35487386507288
