CCSDS_OMM_VERS = 2.0
CREATION_DATE  = 
ORIGINATOR     = 

OBJECT_NAME    = SL-16 R/B
OBJECT_ID      = 1993-016B
CENTER_NAME    = EARTH
REF_FRAME      = TEME
TIME_SYSTEM    = UTC
MEAN_ELEMENT_THEORY = SGP/SGP4

EPOCH          = 2026-03-01T12:15:25.039008
MEAN_MOTION    = 14.15303667
ECCENTRICITY   = .0011218
INCLINATION    = 71.0053
RA_OF_ASC_NODE = 232.3598
ARG_OF_PERICENTER = 325.7238
MEAN_ANOMALY   = 34.3159

EPHEMERIS_TYPE = 0
CLASSIFICATION_TYPE = U
NORAD_CAT_ID   = 22566
ELEMENT_SET_NO = 999
REV_AT_EPOCH   = 70101
BSTAR          = .1969E-3
MEAN_MOTION_DOT = .336E-5
MEAN_MOTION_DDOT = 0

CCSDS_OMM_VERS = 2.0
CREATION_DATE  = 
ORIGINATOR     = 

OBJECT_NAME    = COSMOS 2242
OBJECT_ID      = 1993-024A
CENTER_NAME    = EARTH
REF_FRAME      = TEME
TIME_SYSTEM    = UTC
MEAN_ELEMENT_THEORY = SGP/SGP4

EPOCH          = 2026-03-01T01:51:32.065344
MEAN_MOTION    = 14.96507706
ECCENTRICITY   = .0015846
INCLINATION    = 82.5160
RA_OF_ASC_NODE = 274.9559
ARG_OF_PERICENTER = 339.6210
MEAN_ANOMALY   = 20.4378

EPHEMERIS_TYPE = 0
CLASSIFICATION_TYPE = U
NORAD_CAT_ID   = 22626
ELEMENT_SET_NO = 999
REV_AT_EPOCH   = 77910
BSTAR          = .17747162E-3
MEAN_MOTION_DOT = .2046E-4
MEAN_MOTION_DDOT = 0

CCSDS_OMM_VERS = 2.0
CREATION_DATE  = 
ORIGINATOR     = 

OBJECT_NAME    = SL-16 R/B
OBJECT_ID      = 1993-059B
CENTER_NAME    = EARTH
REF_FRAME      = TEME
TIME_SYSTEM    = UTC
MEAN_ELEMENT_THEORY = SGP/SGP4

EPOCH          = 2026-03-01T08:38:29.585760
MEAN_MOTION    = 14.17231508
ECCENTRICITY   = .0018874
INCLINATION    = 70.9914
RA_OF_ASC_NODE = 28.6906
ARG_OF_PERICENTER = 228.1805
MEAN_ANOMALY   = 131.7708

EPHEMERIS_TYPE = 0
CLASSIFICATION_TYPE = U
NORAD_CAT_ID   = 22803
ELEMENT_SET_NO = 999
REV_AT_EPOCH   = 67835
BSTAR          = .11042E-3
MEAN_MOTION_DOT = .175E-5
MEAN_MOTION_DDOT = 0

CCSDS_OMM_VERS = 2.0
CREATION_DATE  = 
ORIGINATOR     = 

OBJECT_NAME    = ARIANE 40 R/B
OBJECT_ID      = 1993-061H
CENTER_NAME    = EARTH
REF_FRAME      = TEME
TIME_SYSTEM    = UTC
MEAN_ELEMENT_THEORY = SGP/SGP4

EPOCH          = 2026-03-01T04:18:06.386112
MEAN_MOTION    = 14.32855640
ECCENTRICITY   = .00097249
INCLINATION    = 98.4935
RA_OF_ASC_NODE = 129.2343
ARG_OF_PERICENTER = 313.1801
MEAN_ANOMALY   = 46.8570

EPHEMERIS_TYPE = 0
CLASSIFICATION_TYPE = U
NORAD_CAT_ID   = 22830
ELEMENT_SET_NO = 999
REV_AT_EPOCH   = 69288
BSTAR          = .96543651E-4
MEAN_MOTION_DOT = .22E-5
MEAN_MOTION_DDOT = 0

CCSDS_OMM_VERS = 2.0
CREATION_DATE  = 
ORIGINATOR     = 

OBJECT_NAME    = COSMOS 2278
OBJECT_ID      = 1994-023A
CENTER_NAME    = EARTH
REF_FRAME      = TEME
TIME_SYSTEM    = UTC
MEAN_ELEMENT_THEORY = SGP/SGP4

EPOCH          = 2026-03-01T11:08:51.785664
MEAN_MOTION    = 14.14373880
ECCENTRICITY   = .0007571
INCLINATION    = 71.0537
RA_OF_ASC_NODE = 192.3039
ARG_OF_PERICENTER = 30.0489
MEAN_ANOMALY   = 330.1067

EPHEMERIS_TYPE = 0
CLASSIFICATION_TYPE = U
NORAD_CAT_ID   = 23087
ELEMENT_SET_NO = 999
REV_AT_EPOCH   = 64364
BSTAR          = .21148E-3
MEAN_MOTION_DOT = .358E-5
MEAN_MOTION_DDOT = 0

CCSDS_OMM_VERS = 2.0
CREATION_DATE  = 
ORIGINATOR     = 

OBJECT_NAME    = SL-16 R/B
OBJECT_ID      = 1994-023B
CENTER_NAME    = EARTH
REF_FRAME      = TEME
TIME_SYSTEM    = UTC
MEAN_ELEMENT_THEORY = SGP/SGP4

EPOCH          = 2026-03-01T12:21:06.458112
MEAN_MOTION    = 14.15013484
ECCENTRICITY   = .0005518
INCLINATION    = 70.9987
RA_OF_ASC_NODE = 88.0569
ARG_OF_PERICENTER = 293.4733
MEAN_ANOMALY   = 66.5810

EPHEMERIS_TYPE = 0
CLASSIFICATION_TYPE = U
NORAD_CAT_ID   = 23088
ELEMENT_SET_NO = 999
REV_AT_EPOCH   = 64493
BSTAR          = .69301E-5
MEAN_MOTION_DOT = -.34E-6
MEAN_MOTION_DDOT = 0

CCSDS_OMM_VERS = 2.0
CREATION_DATE  = 
ORIGINATOR     = 

OBJECT_NAME    = SL-16 R/B
OBJECT_ID      = 1994-074B
CENTER_NAME    = EARTH
REF_FRAME      = TEME
TIME_SYSTEM    = UTC
MEAN_ELEMENT_THEORY = SGP/SGP4

EPOCH          = 2026-03-01T01:29:10.516128
MEAN_MOTION    = 14.79396099
ECCENTRICITY   = .0005241
INCLINATION    = 97.7121
RA_OF_ASC_NODE = 91.2287
ARG_OF_PERICENTER = 243.8930
MEAN_ANOMALY   = 143.1276

EPHEMERIS_TYPE = 0
CLASSIFICATION_TYPE = U
NORAD_CAT_ID   = 23343
ELEMENT_SET_NO = 999
REV_AT_EPOCH   = 68597
BSTAR          = .79463739E-4
MEAN_MOTION_DOT = .543E-5
MEAN_MOTION_DDOT = 0

CCSDS_OMM_VERS = 2.0
CREATION_DATE  = 
ORIGINATOR     = 

OBJECT_NAME    = SL-16 R/B
OBJECT_ID      = 1994-077B
CENTER_NAME    = EARTH
REF_FRAME      = TEME
TIME_SYSTEM    = UTC
MEAN_ELEMENT_THEORY = SGP/SGP4

EPOCH          = 2026-03-01T06:53:56.655456
MEAN_MOTION    = 14.15563078
ECCENTRICITY   = .0003548
INCLINATION    = 70.9849
RA_OF_ASC_NODE = 10.1639
ARG_OF_PERICENTER = 222.9302
MEAN_ANOMALY   = 137.1544

EPHEMERIS_TYPE = 0
CLASSIFICATION_TYPE = U
NORAD_CAT_ID   = 23405
ELEMENT_SET_NO = 999
REV_AT_EPOCH   = 61504
BSTAR          = -.93111E-4
MEAN_MOTION_DOT = -.23E-5
MEAN_MOTION_DDOT = 0

CCSDS_OMM_VERS = 2.0
CREATION_DATE  = 
ORIGINATOR     = 

OBJECT_NAME    = ARIANE 40+ R/B
OBJECT_ID      = 1995-021B
CENTER_NAME    = EARTH
REF_FRAME      = TEME
TIME_SYSTEM    = UTC
MEAN_ELEMENT_THEORY = SGP/SGP4

EPOCH          = 2026-03-01T04:46:29.540064
MEAN_MOTION    = 14.39765130
ECCENTRICITY   = .00072743
INCLINATION    = 98.4515
RA_OF_ASC_NODE = 131.7960
ARG_OF_PERICENTER = 159.1383
MEAN_ANOMALY   = 259.9947

EPHEMERIS_TYPE = 0
CLASSIFICATION_TYPE = U
NORAD_CAT_ID   = 23561
ELEMENT_SET_NO = 999
REV_AT_EPOCH   = 61802
BSTAR          = .11399785E-3
MEAN_MOTION_DOT = .314E-5
MEAN_MOTION_DDOT = 0

CCSDS_OMM_VERS = 2.0
CREATION_DATE  = 
ORIGINATOR     = 

OBJECT_NAME    = SL-16 R/B
OBJECT_ID      = 1995-058B
CENTER_NAME    = EARTH
REF_FRAME      = TEME
TIME_SYSTEM    = UTC
MEAN_ELEMENT_THEORY = SGP/SGP4

EPOCH          = 2026-03-01T12:08:42.218016
MEAN_MOTION    = 14.15492803
ECCENTRICITY   = .0011064
INCLINATION    = 71.0208
RA_OF_ASC_NODE = 197.4347
ARG_OF_PERICENTER = 140.2977
MEAN_ANOMALY   = 219.8958

EPHEMERIS_TYPE = 0
CLASSIFICATION_TYPE = U
NORAD_CAT_ID   = 23705
ELEMENT_SET_NO = 999
REV_AT_EPOCH   = 56669
BSTAR          = -.46431E-4
MEAN_MOTION_DOT = -.138E-5
MEAN_MOTION_DDOT = 0

CCSDS_OMM_VERS = 2.0
CREATION_DATE  = 
ORIGINATOR     = 

OBJECT_NAME    = SL-16 R/B
OBJECT_ID      = 1996-051B
CENTER_NAME    = EARTH
REF_FRAME      = TEME
TIME_SYSTEM    = UTC
MEAN_ELEMENT_THEORY = SGP/SGP4

EPOCH          = 2026-03-01T10:55:10.481952
MEAN_MOTION    = 14.12413163
ECCENTRICITY   = .0015827
INCLINATION    = 70.7592
RA_OF_ASC_NODE = 192.6671
ARG_OF_PERICENTER = 160.0862
MEAN_ANOMALY   = 200.0879

EPHEMERIS_TYPE = 0
CLASSIFICATION_TYPE = U
NORAD_CAT_ID   = 24298
ELEMENT_SET_NO = 999
REV_AT_EPOCH   = 52048
BSTAR          = .66378E-4
MEAN_MOTION_DOT = .73E-6
MEAN_MOTION_DDOT = 0

CCSDS_OMM_VERS = 2.0
CREATION_DATE  = 
ORIGINATOR     = 

OBJECT_NAME    = ORBVIEW 2 (SEASTAR)
OBJECT_ID      = 1997-037A
CENTER_NAME    = EARTH
REF_FRAME      = TEME
TIME_SYSTEM    = UTC
MEAN_ELEMENT_THEORY = SGP/SGP4

EPOCH          = 2026-03-01T09:39:04.425120
MEAN_MOTION    = 14.35487386
ECCENTRICITY   = .0003206
INCLINATION    = 98.8552
RA_OF_ASC_NODE = 224.4950
ARG_OF_PERICENTER = 88.6993
MEAN_ANOMALY   = 271.4559

EPHEMERIS_TYPE = 0
CLASSIFICATION_TYPE = U
NORAD_CAT_ID   = 24883
ELEMENT_SET_NO = 999
REV_AT_EPOCH   = 50728
BSTAR          = .14659E-3
MEAN_MOTION_DOT = .375E-5
MEAN_MOTION_DDOT = 0

